0 COSMOS 2251 DEB
1 34321U 93036NT  13281.76653756  .00000810  00000-0  27371-3 0  8074
2 34321 074.0319 128.5025 0018467 264.0313 182.1843 14.38414604243772
0 COSMOS 2251 DEB
1 34321U 93036NT  13284.00492234  .00000976  00000-0  32787-3 0  8087
2 34321 074.0318 124.3761 0018405 259.5177 253.0568 14.38420315244095
0 COSMOS 2251 DEB
1 34321U 93036NT  13286.01482391  .00000894  00000-0  30130-3 0  8093
2 34321 074.0316 120.6712 0018354 255.5462 220.7423 14.38423880244387
0 COSMOS 2251 DEB
1 34321U 93036NT  13288.24022171  .00001419  00000-0  47287-3 0  8103
2 34321 074.0318 116.5686 0018314 251.1306 224.3618 14.38429433244700
0 COSMOS 2251 DEB
1 34321U 93036NT  13290.59423740  .00001188  00000-0  39718-3 0  8115
2 34321 074.0320 112.2290 0018282 246.5015 174.0058 14.38436122245046
0 COSMOS 2251 DEB
1 34321U 93036NT  13292.83144459  .00001468  00000-0  48865-3 0  8126
2 34321 074.0324 108.1045 0018242 242.1640 238.7826 14.38440551245361
0 COSMOS 2251 DEB
1 34321U 93036NT  13294.92568644  .00001637  00000-0  54390-3 0  8133
2 34321 074.0325 104.2440 0018243 238.0631 283.3260 14.38446315245668
